IRIDIUM 26              
1 24903U 97043A   25151.82381953  .00000447  00000+0  14394-3 0  9992
2 24903  86.3942 117.4965 0002424  91.0575 269.0900 14.37132593454393
IRIDIUM 22              
1 24907U 97043E   25152.43697471  .00000454  00000+0  14986-3 0  9994
2 24907  86.3948 120.7644 0002366  87.1421 273.0046 14.35948028454500
DUMMY MASS 1            
1 24925U 97048A   25152.46828882  .00000505  00000+0  53242-4 0  9990
2 24925  86.3341 142.5968 0006163 180.8300 179.2916 14.86974463503038
DUMMY MASS 2            
1 24926U 97048B   25152.22589378  .00000495  00000+0  52494-4 0  9995
2 24926  86.3343 144.3127 0006366 196.4845 163.6173 14.86726517502777
IRIDIUM 29              
1 24944U 97051A   25152.53513088  .00000968  00000+0  32365-3 0  9997
2 24944  86.3959 150.4614 0002222  84.6474 275.4977 14.36458335451246
IRIDIUM 33              
1 24946U 97051C   25151.94190966  .00000281  00000+0  91898-4 0  9994
2 24946  86.3874 149.9690 0009657 122.5313 237.6817 14.34883014450419
IRIDIUM 28              
1 24948U 97051E   25151.96198881  .00000354  00000+0  11185-3 0  9993
2 24948  86.3962 148.2279 0002651  97.2303 262.9196 14.37375211451519
IRIDIUM 36              
1 24967U 97056C   25151.78864024  .00000375  00000+0  11855-3 0  9995
2 24967  86.3993 179.8822 0002583  89.7096 270.4397 14.37597075449863
